[{"OBJECT_NAME":"STARLINK-35328","OBJECT_ID":"2025-211A","EPOCH":"2026-03-09T17:24:01.537056","MEAN_MOTION":15.05684601,"ECCENTRICITY":0.0001043,"INCLINATION":97.6041,"RA_OF_ASC_NODE":114.0452,"ARG_OF_PERICENTER":76.5947,"MEAN_ANOMALY":283.5396,"EPHEMERIS_TYPE":0,"CLASSIFICATION_TYPE":"U","NORAD_CAT_ID":65652,"ELEMENT_SET_NO":999,"REV_AT_EPOCH":2704,"BSTAR":0.00096051781,"MEAN_MOTION_DOT":0.00013838,"MEAN_MOTION_DDOT":0},{"OBJECT_NAME":"SL-3 DEB","OBJECT_ID":"1988-032C","EPOCH":"2026-03-09T20:54:05.348736","MEAN_MOTION":15.06065434,"ECCENTRICITY":0.00240661,"INCLINATION":97.6252,"RA_OF_ASC_NODE":41.5186,"ARG_OF_PERICENTER":162.4496,"MEAN_ANOMALY":255.7854,"EPHEMERIS_TYPE":0,"CLASSIFICATION_TYPE":"U","NORAD_CAT_ID":24893,"ELEMENT_SET_NO":999,"REV_AT_EPOCH":81391,"BSTAR":0.00022425917,"MEAN_MOTION_DOT":3.232e-5,"MEAN_MOTION_DDOT":0}]
